DUBAISAT-1              
1 35682U 09041B   26199.90167707  .00000369  00000+0  62241-4 0  9998
2 35682  98.0090 332.8193 0009630 336.2080  23.8683 14.75169821909777
OCEANSAT-2              
1 35931U 09051A   26199.93938544  .00000005  00000+0  29322-4 0  9994
2 35931  98.2323 183.6207 0017578 142.7602 217.4787 13.99655990883772
WORLDVIEW-2 (WV-2)      
1 35946U 09055A   26199.96453211  .00000040  00000+0  27787-4 0  9992
2 35946  98.4753 272.9815 0005442 120.8231 239.3492 14.37907560880214
SMOS                    
1 36036U 09059A   26199.81026677  .00000097  00000+0  44804-4 0  9994
2 36036  98.4431  26.6818 0001188  97.5264 262.6059 14.39737112878002
YAOGAN-7                
1 36110U 09069A   26199.70409222  .00000173  00000+0  31237-4 0  9998
2 36110  98.0027  85.3706 0023320 299.5121  60.3764 14.78037245894285
TANDEM-X                
1 36605U 10030A   26199.41329616  .00000080  00000+0  70265-5 0  9995
2 36605  97.4455 206.6773 0001893  96.8961 263.2489 15.19148720891388
CARTOSAT-2B             
1 36795U 10035A   26199.94197579 -.00000181  00000+0 -17465-4 0  9995
2 36795  97.9932 250.2855 0012755  89.1972 271.0701 14.78651706864544
YAOGAN-10               
1 36834U 10038A   26199.95450416  .00000346  00000+0  46460-4 0  9993
2 36834  97.8966 223.1058 0001572  82.1102  32.1184 14.85433780861929
COSMO-SKYMED 4          
1 37216U 10060A   26199.97118135 -.00000069  00000+0 -21350-5 0  9990
2 37216  97.8895  23.1110 0001516  83.9770 276.1616 14.82149976849272
RESOURCESAT-2           
1 37387U 11015A   26199.90206390  .00000026  00000+0  31844-4 0  9993
2 37387  98.7629 267.1221 0011774 160.7894 199.3729 14.21600069790686
HAIYANG-2A              
1 37781U 11043A   26200.00964272 -.00000279  00000+0 -25394-3 0  9990
2 37781  99.3403 201.9534 0001971  22.3519 337.7715 13.73204455751022
RASAT                   
1 37791U 11044D   26199.94742623  .00000128  00000+0  30696-4 0  9999
2 37791  98.0581 290.8601 0021966  91.4802  27.9889 14.68194498797846
SRMSAT                  
1 37841U 11058D   26199.48245728  .00000322  00000+0  30967-4 0  9990
2 37841  19.9704 230.0483 0011664 187.3521 320.5069 14.11581472762240
PLEIADES 1A             
1 38012U 11076F   26199.96720001  .00000072  00000+0  25404-4 0  9998
2 38012  98.1965 274.6412 0001622  77.6617  37.3899 14.58547762776621
ZIYUAN 1-02C (ZY 1-02C) 
1 38038U 11079A   26199.94920434  .00000109  00000+0  49940-4 0  9991
2 38038  98.4054 266.5921 0005848 202.1221 273.8270 14.38237162763776
ARIRANG-3 (KOMPSAT-3)   
1 38338U 12025B   26199.92105958  .00000182  00000+0  45416-4 0  9995
2 38338  98.1187 156.8372 0005995  28.7360 331.4170 14.62230795755989
EXACTVIEW-1 (ADS-1B)    
1 38709U 12039C   26199.90797613  .00000043  00000+0  38127-4 0  9992
2 38709  98.9809 318.0192 0011946  81.8339 278.4194 14.24992770727229
SPOT 6                  
1 38755U 12047A   26199.96069363 -.00000055  00000+0 -19678-5 0  9998
2 38755  98.2102 266.8951 0001115  91.3272 268.8055 14.58539252737680
PLEIADES 1B             
1 39019U 12068A   26199.97930176 -.00000020  00000+0  55083-5 0  9996
2 39019  98.1936 274.5912 0001521  79.0420 281.0951 14.58534936725481
GOKTURK 2               
1 39030U 12073A   26199.88477685  .00000081  00000+0  18799-4 0  9994
2 39030  97.6808  35.7257 0001009 100.7407 259.3917 14.75569697729185
LANDSAT 8               
1 39084U 13008A   26199.95625268  .00000143  00000+0  41811-4 0  9992
2 39084  98.2287 269.7118 0001345  91.5995 268.5357 14.57095703702520
SARAL                   
1 39086U 13009A   26199.95307333  .00000018  00000+0  22490-4 0  9998
2 39086  98.5558  26.1188 0001929 158.1009 202.0258 14.32896374700158
GAOFEN-1                
1 39150U 13018A   26199.98163288  .00000450  00000+0  71765-4 0  9991
2 39150  97.9081 271.4010 0017401 159.1692 201.0231 14.76521893712932
VNREDSAT 1              
1 39160U 13021B   26199.98807272  .00000144  00000+0  35474-4 0  9991
2 39160  97.9058 252.1813 0001555  81.4319 278.7061 14.64885737704941
ARIRANG-5 (KOMPSAT-5)   
1 39227U 13042A   26199.89054382  .00000136  00000+0  14060-4 0  9993
2 39227  97.6202  26.1457 0005025  47.7986 312.3666 15.04495848708627
SKYSAT-A                
1 39418U 13066C   26199.86910159  .00001454  00000+0  85306-4 0  9996
2 39418  97.3798 248.2566 0020820 200.2242 159.8167 15.13126389693270
DUBAISAT-2              
1 39419U 13066D   26199.93899875  .00001066  00000+0  68723-4 0  9999
2 39419  97.4582 189.2584 0009152 288.3772  71.6462 15.10386354691181
GPM-CORE                
1 39574U 14009C   26199.92974349  .00003210  00000+0  72930-4 0  9996
2 39574  64.9696 201.7694 0010902 263.1851  96.8049 15.45069191702711
SENTINEL-1A             
1 39634U 14016A   26199.91036510 -.00000108  00000+0 -13218-4 0  9998
2 39634  98.1730 206.9792 0001444  83.1545 276.9819 14.59173188654643
KAZEOSAT 1              
1 39731U 14024A   26199.93903814  .00000044  00000+0  26473-4 0  9991
2 39731  98.3192 271.5940 0001199  85.6839 274.4488 14.42037981643137
