OBJECT_NAME,OBJECT_ID,EPOCH,MEAN_MOTION,ECCENTRICITY,INCLINATION,RA_OF_ASC_NODE,ARG_OF_PERICENTER,MEAN_ANOMALY,EPHEMERIS_TYPE,CLASSIFICATION_TYPE,NORAD_CAT_ID,ELEMENT_SET_NO,REV_AT_EPOCH,BSTAR,MEAN_MOTION_DOT,MEAN_MOTION_DDOT
DUBAISAT-1,2009-041B,2026-07-18T21:38:24.898848,14.75169821,.00096305,98.0090,332.8193,336.2080,23.8683,0,U,35682,999,90977,.62240845E-4,.369E-5,0
OCEANSAT-2,2009-051A,2026-07-18T22:32:42.902016,13.99655990,.00175782,98.2323,183.6207,142.7602,217.4787,0,U,35931,999,88377,.29321674E-4,.5E-7,0
WORLDVIEW-2 (WV-2),2009-055A,2026-07-18T23:08:55.574304,14.37907560,.00054422,98.4753,272.9815,120.8231,239.3492,0,U,35946,999,88021,.27786797E-4,.4E-6,0
SMOS,2009-059A,2026-07-18T19:26:47.048928,14.39737112,.00011886,98.4431,26.6818,97.5264,262.6059,0,U,36036,999,87800,.44803936E-4,.97E-6,0
YAOGAN-7,2009-069A,2026-07-18T16:53:53.567808,14.78037245,.00233202,98.0027,85.3706,299.5121,60.3764,0,U,36110,999,89428,.31236673E-4,.173E-5,0
TANDEM-X,2010-030A,2026-07-18T09:55:08.788224,15.19148720,.0001893,97.4455,206.6773,96.8961,263.2489,0,U,36605,999,89138,.7026452E-5,.8E-6,0
CARTOSAT-2B,2010-035A,2026-07-18T22:36:26.708256,14.78651706,.00127555,97.9932,250.2855,89.1972,271.0701,0,U,36795,999,86454,-.17464561E-4,-.181E-5,0
YAOGAN-10,2010-038A,2026-07-18T22:54:29.159424,14.85433780,.00015728,97.8966,223.1058,82.1102,32.1184,0,U,36834,999,86192,.46460304E-4,.346E-5,0
COSMO-SKYMED 4,2010-060A,2026-07-18T23:18:30.068640,14.82149976,.00015163,97.8895,23.1110,83.9770,276.1616,0,U,37216,999,84927,-.2134987E-5,-.69E-6,0
RESOURCESAT-2,2011-015A,2026-07-18T21:38:58.320960,14.21600069,.00117741,98.7629,267.1221,160.7894,199.3729,0,U,37387,999,79068,.31844085E-4,.26E-6,0
HAIYANG-2A,2011-043A,2026-07-19T00:13:53.131008,13.73204455,.00019712,99.3403,201.9534,22.3519,337.7715,0,U,37781,999,75102,-.2539369E-3,-.279E-5,0
RASAT,2011-044D,2026-07-18T22:44:17.626272,14.68194498,.0021966,98.0581,290.8601,91.4802,27.9889,0,U,37791,999,79784,.30695879E-4,.128E-5,0
SRMSAT,2011-058D,2026-07-18T11:34:44.308992,14.11581472,.00116646,19.9704,230.0483,187.3521,320.5069,0,U,37841,999,76224,.30967464E-4,.322E-5,0
PLEIADES 1A,2011-076F,2026-07-18T23:12:46.080864,14.58547762,.0001622,98.1965,274.6412,77.6617,37.3899,0,U,38012,999,77662,.25404184E-4,.72E-6,0
ZIYUAN 1-02C (ZY 1-02C),2011-079A,2026-07-18T22:46:51.254976,14.38237162,.0005848,98.4054,266.5921,202.1221,273.8270,0,U,38038,999,76377,.49939923E-4,.109E-5,0
ARIRANG-3 (KOMPSAT-3),2012-025B,2026-07-18T22:06:19.547712,14.62230795,.00059955,98.1187,156.8372,28.7360,331.4170,0,U,38338,999,75598,.45415659E-4,.182E-5,0
EXACTVIEW-1 (ADS-1B),2012-039C,2026-07-18T21:47:29.137632,14.24992770,.00119469,98.9809,318.0192,81.8339,278.4194,0,U,38709,999,72722,.38126507E-4,.43E-6,0
SPOT 6,2012-047A,2026-07-18T23:03:23.929632,14.58539252,.00011158,98.2102,266.8951,91.3272,268.8055,0,U,38755,999,73768,-.1967773E-5,-.55E-6,0
PLEIADES 1B,2012-068A,2026-07-18T23:30:11.672064,14.58534936,.00015215,98.1936,274.5912,79.0420,281.0951,0,U,39019,999,72548,.5508288E-5,-.2E-6,0
GOKTURK 2,2012-073A,2026-07-18T21:14:04.719840,14.75569697,.00010093,97.6808,35.7257,100.7407,259.3917,0,U,39030,999,72918,.18799325E-4,.81E-6,0
LANDSAT 8,2013-008A,2026-07-18T22:57:00.231552,14.57095703,.00013451,98.2287,269.7118,91.5995,268.5357,0,U,39084,999,70252,.41811347E-4,.143E-5,0
SARAL,2013-009A,2026-07-18T22:52:25.535712,14.32896374,.00019295,98.5558,26.1188,158.1009,202.0258,0,U,39086,999,70015,.22490034E-4,.18E-6,0
GAOFEN-1,2013-018A,2026-07-18T23:33:33.080832,14.76521893,.00174015,97.9081,271.4010,159.1692,201.0231,0,U,39150,999,71293,.71765469E-4,.45E-5,0
VNREDSAT 1,2013-021B,2026-07-18T23:42:49.483008,14.64885737,.00015559,97.9058,252.1813,81.4319,278.7061,0,U,39160,999,70494,.3547353E-4,.144E-5,0
ARIRANG-5 (KOMPSAT-5),2013-042A,2026-07-18T21:22:22.986048,15.04495848,.0005025,97.6202,26.1457,47.7986,312.3666,0,U,39227,999,70862,.14060163E-4,.136E-5,0
SKYSAT-A,2013-066C,2026-07-18T20:51:30.377376,15.13126389,.00208202,97.3798,248.2566,200.2242,159.8167,0,U,39418,999,69327,.85305753E-4,.1454E-4,0
DUBAISAT-2,2013-066D,2026-07-18T22:32:09.492000,15.10386354,.00091528,97.4582,189.2584,288.3772,71.6462,0,U,39419,999,69118,.68722706E-4,.1066E-4,0
GPM-CORE,2014-009C,2026-07-18T22:18:49.837536,15.45069191,.00109025,64.9696,201.7694,263.1851,96.8049,0,U,39574,999,70271,.72930423E-4,.321E-4,0
SENTINEL-1A,2014-016A,2026-07-18T21:50:55.544640,14.59173188,.00014441,98.1730,206.9792,83.1545,276.9819,0,U,39634,999,65464,-.13218232E-4,-.108E-5,0
KAZEOSAT 1,2014-024A,2026-07-18T22:32:12.895296,14.42037981,.00011996,98.3192,271.5940,85.6839,274.4488,0,U,39731,999,64313,.26473275E-4,.44E-6,0
